OBJECT_NAME,OBJECT_ID,EPOCH,MEAN_MOTION,ECCENTRICITY,INCLINATION,RA_OF_ASC_NODE,ARG_OF_PERICENTER,MEAN_ANOMALY,EPHEMERIS_TYPE,CLASSIFICATION_TYPE,NORAD_CAT_ID,ELEMENT_SET_NO,REV_AT_EPOCH,BSTAR,MEAN_MOTION_DOT,MEAN_MOTION_DDOT
BEIDOU-2 IGSO-5 (C10),2011-073A,2026-07-02T17:30:18.330912,1.00270596,.01145273,47.6496,271.3544,222.0502,141.5350,0,U,37948,999,5329,0,-.128E-5,0
LUCH 5A (SDCM/PRN 140),2011-074B,2026-07-11T10:55:44.756832,1.00272643,.0002558,8.8126,73.4502,59.0031,127.8149,0,U,37951,999,5329,0,-.52E-6,0
BEIDOU-2 G5 (C05),2012-008A,2026-07-11T01:51:42.922368,1.00269208,.0007359,3.6296,69.5473,270.3931,35.6687,0,U,38091,999,5260,0,.62E-6,0
BEIDOU-2 M3 (C11),2012-018A,2026-07-10T06:40:09.382368,1.86230078,.0020763,55.7367,304.0977,272.6276,87.1498,0,U,38250,999,9637,0,-.7E-6,0
BEIDOU-2 M4 (C12),2012-018B,2026-07-10T05:02:43.446048,1.86229687,.0012086,55.6367,303.3120,272.7348,87.1429,0,U,38251,999,9637,0,-.69E-6,0
SES-5 (EGNOS/PRN 136),2012-036A,2026-07-11T08:41:02.594112,1.00269357,.000191,0.0459,319.7123,150.4771,314.3154,0,U,38652,999,4469,0,.4E-6,0
BEIDOU-2 M6 (C14),2012-050B,2026-07-10T23:51:02.668032,1.86230857,.0013032,56.5649,62.1074,1.0822,358.9856,0,U,38775,999,9375,0,-.45E-6,0
GSAT-10 (GAGAN/PRN 128),2012-051B,2026-07-11T12:14:38.597280,1.00271624,.0007424,0.1020,265.6162,187.1604,103.2730,0,U,38779,999,5034,0,-.159E-5,0
GPS BIIF-3  (PRN 24),2012-053A,2026-07-11T05:56:11.486688,2.00567820,.018175,53.5891,142.6137,66.1505,295.7065,0,U,38833,999,9992,0,.21E-6,0
GSAT0103 (GALILEO-FM3),2012-055A,2026-07-09T18:23:01.882464,1.70473301,.00039458,55.8193,100.9259,309.3641,50.6099,0,U,38857,999,8539,0,-.19E-6,0
BEIDOU-2 G6 (C02),2012-059A,2026-07-11T01:58:49.740960,1.00273656,.0009064,4.4780,73.2667,326.7150,2.6673,0,U,38953,999,5014,0,-.172E-5,0
LUCH 5B (SDCM/PRN 125),2012-061A,2026-07-11T10:03:26.008992,1.00270884,.0003806,10.5326,49.6349,144.8636,229.4311,0,U,38977,999,4985,0,-.14E-5,0
COSMOS 2485 (747),2013-019A,2026-07-09T21:41:21.416640,2.13103398,.0022762,65.4318,72.8427,231.6212,128.2346,0,U,39155,999,10276,0,-.24E-6,0
IRNSS-1A,2013-034A,2026-07-10T17:17:25.711872,1.00281941,.0017567,35.7704,63.5328,183.4462,356.2994,0,U,39199,999,4760,0,.47E-6,0
ASTRA 5B (EGNOS/PRN 123),2014-011B,2026-07-11T11:57:21.004992,1.00272232,.0001979,0.0852,298.0582,190.1979,3.9862,0,U,39617,999,4491,0,.143E-5,0
COSMOS 2492 (754),2014-012A,2026-07-10T19:13:34.366080,2.13103316,.0010293,65.2825,313.1340,318.9623,40.9656,0,U,39620,999,9574,0,-.61E-6,0
IRNSS-1B,2014-017A,2026-07-10T17:17:10.737024,1.00274378,.0022328,28.8825,239.9967,191.5584,171.4704,0,U,39635,999,4503,0,.149E-5,0
LUCH 5V (SDCM/PRN 141),2014-023A,2026-07-11T02:01:56.942112,1.00275436,.0002056,5.1879,69.4921,75.1077,269.5638,0,U,39727,999,4459,0,-.267E-5,0
GPS BIIF-6  (PRN 06),2014-026A,2026-07-10T09:29:36.585312,2.00559176,.0038119,56.4859,330.6145,325.9139,33.8410,0,U,39741,999,8900,0,-.8E-6,0
COSMOS 2500 (755),2014-032A,2026-07-09T02:14:41.698752,2.13106082,.0008037,65.2189,312.9376,189.2565,170.7378,0,U,40001,999,9392,0,-.56E-6,0
GSAT0201 (GALILEO 5),2014-050A,2026-07-10T01:18:12.802176,1.85519753,.16778151,48.8500,272.4979,180.2883,179.6634,0,U,40128,999,7874,0,-.22E-6,0
GSAT0202 (GALILEO 6),2014-050B,2026-07-11T09:18:20.935584,1.85520566,.1679178,48.8660,271.5287,181.0429,178.6225,0,U,40129,999,8093,0,-.14E-6,0
IRNSS-1C,2014-061A,2026-07-11T05:07:38.673120,1.00272976,.0022129,6.5771,88.4746,5.0088,355.5803,0,U,40269,999,4293,0,-.162E-5,0
COSMOS 2501 (702K),2014-075A,2026-07-10T07:03:54.818208,2.13101344,.00226508,63.6181,189.5721,212.5784,147.3100,0,U,40315,999,9034,0,.118E-5,0
GSAT0203 (GALILEO 7),2015-017A,2026-07-10T02:08:55.601088,1.70476121,.0002503,56.7788,340.9723,258.1316,101.8369,0,U,40544,999,6959,0,-.8E-6,0
GSAT0204 (GALILEO 8),2015-017B,2026-07-10T08:17:21.294240,1.70475622,.0002638,56.7851,340.9839,235.0424,124.9287,0,U,40545,999,3264,0,-.81E-6,0
